{"type":"FeatureCollection","features":[{"type":"Feature","properties":{"name":"LFA 1 Niedersachsen","source":"NfL 2025-1-3686 (DFS Deutsche Flugsicherung); linear segments (c) OpenStreetMap contributors, ODbL, data 2026-09-18"},"geometry":{"type":"Polygon","coordinates":[[[7.21667,53.19167],[7.56667,53.15833],[7.675,53.17783],[7.67486,53.17834],[7.67672,53.17858],[7.68232,53.18116],[7.68527,53.18066],[7.68697,53.18157],[7.69071,53.18066],[7.6915,53.17757],[7.6922,53.17729],[7.69871,53.1788],[7.70089,53.1802],[7.70624,53.17849],[7.70747,53.17872],[7.70874,53.1798],[7.71226,53.17894],[7.71329,53.17928],[7.71396,53.18081],[7.71474,53.18095],[7.71623,53.17984],[7.71917,53.17888],[7.72133,53.17704],[7.72305,53.17766],[7.72483,53.17759],[7.72765,53.17544],[7.72865,53.1741],[7.73344,53.1753],[7.73381,53.17679],[7.73508,53.17727],[7.74356,53.17511],[7.74448,53.17457],[7.74478,53.17347],[7.74762,53.17278],[7.75517,53.17343],[7.76151,53.17487],[7.76726,53.17496],[7.77003,53.17412],[7.77473,53.17137],[7.7782,53.17139],[7.78052,53.1725],[7.7812,53.17338],[7.78134,53.17489],[7.78324,53.17631],[7.78987,53.17749],[7.80027,53.17623],[7.80259,53.17683],[7.80764,53.1753],[7.80948,53.17315],[7.81182,53.17231],[7.81436,53.17241],[7.8157,53.17375],[7.8173,53.17444],[7.82125,53.17447],[7.82292,53.17377],[7.82501,53.17155],[7.82856,53.17103],[7.83282,53.16938],[7.83364,53.16835],[7.83373,53.16671],[7.83418,53.16627],[7.83657,53.16573],[7.84209,53.16554],[7.84434,53.16398],[7.85382,53.16365],[7.85548,53.16099],[7.85539,53.15783],[7.85874,53.15579],[7.86078,53.15262],[7.86368,53.15122],[7.86374,53.15018],[7.8627,53.14891],[7.86279,53.14828],[7.86766,53.14718],[7.8689,53.14557],[7.86572,53.14168],[7.86567,53.14106],[7.872,53.13948],[7.87529,53.13762],[7.8774,53.13466],[7.87703,53.13286],[7.87869,53.13173],[7.887,53.13058],[7.88982,53.12895],[7.89235,53.12815],[7.89376,53.12718],[7.89531,53.12343],[7.89877,53.12038],[7.90409,53.12078],[7.9076,53.12045],[7.90976,53.12152],[7.91913,53.12065],[7.92342,53.11981],[7.92663,53.11995],[7.92845,53.11895],[7.92951,53.11565],[7.93305,53.11239],[7.94171,53.11106],[7.94457,53.11141],[7.94763,53.11268],[7.95252,53.11384],[7.95,53.11667],[8.17583,53.068],[8.17421,53.06796],[8.17106,53.06328],[8.17038,53.05937],[8.1713,53.05547],[8.17376,53.05183],[8.177,53.04907],[8.18188,53.04644],[8.1868,53.04482],[8.19218,53.04385],[8.19777,53.04357],[8.20334,53.044],[8.20948,53.04537],[8.21417,53.04722],[8.21811,53.04963],[8.22154,53.05298],[8.22351,53.05673],[8.225,53.05717],[8.68883,52.95833],[8.68427,52.95852],[8.68366,52.94946],[8.68566,52.94729],[8.68585,52.9424],[8.68545,52.9414],[8.68822,52.93887],[8.6901,52.93614],[8.68963,52.93427],[8.69104,52.93153],[8.69341,52.9288],[8.69291,52.92656],[8.69364,52.9252],[8.69262,52.92416],[8.69391,52.92032],[8.69108,52.91884],[8.69064,52.91173],[8.69493,52.90433],[8.69688,52.9026],[8.70129,52.89644],[8.70716,52.89299],[8.71145,52.89184],[8.71599,52.88528],[8.71532,52.88315],[8.709,52.87936],[8.70743,52.87671],[8.70768,52.87359],[8.70874,52.86985],[8.71056,52.8673],[8.71091,52.86415],[8.70833,52.86167],[8.70714,52.86176],[8.70233,52.85916],[8.6987,52.85594],[8.69612,52.85119],[8.69598,52.84674],[8.69789,52.84244],[8.70111,52.83907],[8.7056,52.83627],[8.71192,52.83399],[8.7125,52.83333],[8.71022,52.83094],[8.67562,52.8133],[8.66744,52.80795],[8.66517,52.80833],[8.66533,52.80908],[8.663,52.81099],[8.65714,52.81412],[8.65193,52.81577],[8.64626,52.81671],[8.63941,52.81689],[8.63363,52.81623],[8.62736,52.81457],[8.62265,52.81244],[8.6177,52.80877],[8.61489,52.80499],[8.61369,52.80091],[8.61436,52.7962],[8.6167,52.7923],[8.62054,52.78887],[8.62564,52.7861],[8.63262,52.78397],[8.63333,52.78333],[8.6329,52.78347],[8.61798,52.77279],[8.60183,52.75783],[8.59524,52.75339],[8.56314,52.73471],[8.53312,52.71981],[8.5375,52.72083],[8.54331,52.72327],[8.54151,52.72517],[8.53781,52.72806],[8.53333,52.73051],[8.52377,52.7336],[8.51552,52.73467],[8.50708,52.73449],[8.49897,52.73308],[8.49167,52.73051],[8.48719,52.72806],[8.48416,52.72578],[8.48116,52.72261],[8.47912,52.71917],[8.47801,52.71483],[8.47843,52.71045],[8.48034,52.70622],[8.48302,52.70295],[8.47783,52.7],[8.31117,52.72083],[8.31275,52.72081],[8.31546,52.72415],[8.31667,52.72726],[8.31678,52.73045],[8.31602,52.73308],[8.31415,52.73606],[8.31183,52.73832],[8.30889,52.7403],[8.30543,52.74195],[8.30074,52.7434],[8.29214,52.74442],[8.28349,52.7436],[8.2787,52.74225],[8.27515,52.74069],[8.27155,52.73835],[8.26883,52.73562],[8.26711,52.7326],[8.26647,52.72943],[8.26693,52.72625],[8.26848,52.72319],[8.27104,52.7204],[8.27516,52.71764],[8.275,52.71667],[8.27375,52.71658],[8.27177,52.71528],[8.26328,52.70665],[8.25391,52.69909],[8.24083,52.68333],[8.23696,52.68361],[8.23114,52.68317],[8.22218,52.68084],[8.21834,52.679],[8.21509,52.67679],[8.21252,52.67427],[8.21072,52.67151],[8.20974,52.66861],[8.20961,52.66564],[8.21033,52.66271],[8.21188,52.6599],[8.21422,52.65729],[8.21727,52.65498],[8.225,52.65133],[8.22381,52.65093],[8.22339,52.65026],[8.20351,52.60893],[8.20074,52.59592],[8.19711,52.5917],[8.19387,52.59003],[8.13376,52.57339],[8.08415,52.54299],[8.08249,52.54131],[8.07593,52.53225],[8.06651,52.51356],[8.0647,52.51141],[8.04996,52.50331],[8.00467,52.48201],[7.99505,52.47577],[7.96877,52.44761],[7.96776,52.44475],[7.96755,52.43854],[7.67083,52.52217],[7.66555,52.52087],[7.66448,52.52394],[7.66527,52.52884],[7.66671,52.5326],[7.66598,52.54126],[7.66495,52.54297],[7.65939,52.54894],[7.65313,52.55744],[7.64473,52.56197],[7.64274,52.5626],[7.63517,52.56283],[7.62636,52.56242],[7.61306,52.56323],[7.60953,52.56436],[7.60805,52.56577],[7.60547,52.57025],[7.59851,52.57484],[7.59668,52.57933],[7.5943,52.582],[7.58874,52.58564],[7.54961,52.61663],[7.49566,52.65352],[7.49379,52.65608],[7.49617,52.65525],[7.50129,52.65685],[7.50507,52.65866],[7.51036,52.6628],[7.51307,52.66716],[7.51374,52.67121],[7.51277,52.67525],[7.51021,52.67903],[7.50687,52.68188],[7.50263,52.68425],[7.49767,52.68603],[7.49313,52.68702],[7.48743,52.68754],[7.48262,52.68742],[7.47701,52.68661],[7.4718,52.68511],[7.46793,52.68338],[7.46667,52.68333],[7.4,52.7],[7.54167,52.88333],[7.6,52.95],[7.43333,52.96667],[7.40833,52.93333],[7.25,52.7],[7.25283,52.68333],[7.06383,52.718],[7.07155,52.81042],[7.07998,52.82149],[7.07951,52.82162],[7.08009,52.82233],[7.08053,52.82221],[7.09274,52.8382],[7.08726,52.84989],[7.09671,52.85754],[7.09866,52.85923],[7.0987,52.85974],[7.09959,52.86],[7.10439,52.86394],[7.18152,52.94158],[7.20956,53.00051],[7.21513,53.00512],[7.21649,53.00565],[7.2161,53.00592],[7.21744,53.00704],[7.21297,53.01088],[7.19922,53.08139],[7.20279,53.11341],[7.1829,53.12177],[7.18587,53.12423],[7.18364,53.12487],[7.18094,53.12783],[7.1789,53.13829],[7.18026,53.13803],[7.18317,53.14019],[7.18396,53.14232],[7.18586,53.14467],[7.1896,53.14796],[7.18932,53.15732],[7.19118,53.15957],[7.19067,53.16112],[7.1909,53.16184],[7.20366,53.17656],[7.21256,53.17697],[7.2275,53.18028],[7.20804,53.18848],[7.21145,53.19251],[7.21301,53.19353],[7.21667,53.19167]]]}},{"type":"Feature","properties":{"name":"LFA 2 M\u00fcnsterland","source":"NfL 2025-1-3686 (DFS Deutsche Flugsicherung); linear segments (c) OpenStreetMap contributors, ODbL, data 2026-09-18"},"geometry":{"type":"Polygon","coordinates":[[[7.08333,52.21117],[7.08177,52.20951],[7.16246,52.20203],[7.16317,52.202],[7.16333,52.20283],[7.17625,52.20531],[7.1781,52.20329],[7.1808,52.20167],[7.18456,52.20047],[7.18828,52.20006],[7.1934,52.20054],[7.19819,52.20236],[7.20117,52.20495],[7.20234,52.20804],[7.18883,52.20833],[7.22033,52.19417],[7.20943,52.18927],[7.23206,52.16855],[7.23528,52.16638],[7.24201,52.16416],[7.24861,52.163],[7.31305,52.15647],[7.31383,52.15833],[7.31415,52.15741],[7.31115,52.15436],[7.30925,52.151],[7.30858,52.14806],[7.30875,52.14509],[7.31006,52.14162],[7.31203,52.13891],[7.31475,52.13646],[7.31886,52.13395],[7.3264,52.13131],[7.33491,52.13023],[7.3407,52.13044],[7.34538,52.13118],[7.34978,52.13241],[7.35,52.13333],[7.34811,52.13245],[7.35257,52.12901],[7.35681,52.12721],[7.40845,52.11637],[7.41168,52.11477],[7.45209,52.08807],[7.45654,52.084],[7.48685,52.04521],[7.49159,52.04191],[7.49795,52.03966],[7.5,52.04167],[7.5,51.91117],[7.50036,51.90944],[7.4475,51.89945],[7.44207,51.89804],[7.40972,51.88582],[7.38239,51.86653],[7.37867,51.86504],[7.36914,51.86275],[7.36667,51.86667],[7.26667,51.89167],[7.10417,51.84167],[7.10445,51.72454],[7.09141,51.72469],[7.09167,51.725],[7.08869,51.72471],[7.08889,51.72858],[7.08659,51.73333],[7.08528,51.73482],[7.08049,51.73721],[7.06609,51.74276],[7.06016,51.74403],[7.05526,51.74388],[7.04961,51.74527],[7.04331,51.74847],[7.03775,51.74994],[7.03226,51.75077],[7.02549,51.7508],[7.0255,51.75133],[7.0133,51.72362],[7.01667,51.72367],[7.01771,51.72117],[7.01487,51.72073],[7.0126,51.72201],[7.00323,51.72379],[6.99823,51.7236],[6.95705,51.70529],[6.89613,51.69745],[6.89464,51.69717],[6.89533,51.69617],[6.89678,51.69693],[6.89406,51.70099],[6.89028,51.70405],[6.88541,51.70645],[6.88059,51.70786],[6.87541,51.70862],[6.87008,51.7087],[6.86484,51.70808],[6.85915,51.70653],[6.85489,51.70455],[6.85138,51.70206],[6.84845,51.69866],[6.84707,51.69547],[6.84679,51.69217],[6.84815,51.68785],[6.85088,51.68439],[6.85,51.68333],[6.84999,51.68372],[6.84855,51.68345],[6.84314,51.6816],[6.84038,51.68114],[6.79688,51.67999],[6.74168,51.66828],[6.73591,51.6684],[6.72162,51.66759],[6.67614,51.66306],[6.675,51.66667],[6.67028,51.6681],[6.66709,51.67656],[6.66405,51.68142],[6.66019,51.68605],[6.65209,51.69313],[6.64424,51.69808],[6.63297,51.70323],[6.61779,51.70768],[6.60422,51.7098],[6.59026,51.71041],[6.5736,51.70913],[6.55776,51.7057],[6.54568,51.70132],[6.53909,51.69808],[6.5331,51.69442],[6.52776,51.6904],[6.52314,51.68604],[6.51928,51.68141],[6.51541,51.67489],[6.51305,51.6681],[6.51232,51.66291],[6.51667,51.66117],[6.51616,51.66211],[6.50257,51.66159],[6.49629,51.66186],[6.48996,51.66284],[6.4833,51.66512],[6.48091,51.66647],[6.47736,51.66945],[6.47342,51.67706],[6.46886,51.69231],[6.46436,51.69895],[6.4604,51.70242],[6.45552,51.70511],[6.44948,51.7071],[6.44401,51.70822],[6.41763,51.71157],[6.41154,51.71457],[6.40932,51.71681],[6.40779,51.71922],[6.40753,51.72159],[6.40794,51.7241],[6.40964,51.72665],[6.42003,51.73602],[6.42234,51.73913],[6.4227,51.74271],[6.42227,51.74482],[6.41989,51.7487],[6.41694,51.75124],[6.42203,51.75119],[6.42718,51.75368],[6.43166,51.75736],[6.43431,51.76167],[6.43497,51.7657],[6.43403,51.76969],[6.43154,51.77343],[6.42766,51.77668],[6.42417,51.77859],[6.41934,51.78035],[6.41402,51.78144],[6.40939,51.78181],[6.40018,51.78103],[6.39587,51.77991],[6.39123,51.77797],[6.38792,51.77593],[6.3848,51.77306],[6.38298,51.7704],[6.38194,51.76758],[6.38185,51.76354],[6.38369,51.75907],[6.38333,51.75833],[6.38637,51.75512],[6.36409,51.75305],[6.35305,51.75432],[6.3477,51.75552],[6.34175,51.75768],[6.33679,51.76012],[6.33081,51.76474],[6.33333,51.76667],[6.41985,51.79712],[6.42257,51.80037],[6.43672,51.8118],[6.44417,51.8197],[6.44332,51.82042],[6.44329,51.82117],[6.44525,51.82275],[6.45317,51.83687],[6.45343,51.83853],[6.45258,51.84056],[6.45279,51.84104],[6.45528,51.84022],[6.45736,51.83882],[6.45904,51.83927],[6.46143,51.83908],[6.46083,51.83883],[6.5805,51.81117],[6.58481,51.81273],[6.59713,51.80882],[6.61062,51.80687],[6.6225,51.80685],[6.63413,51.80837],[6.64499,51.81135],[6.6531,51.81487],[6.66135,51.82015],[6.66577,51.82422],[6.66846,51.8275],[6.67211,51.83448],[6.668,51.83617],[6.66863,51.83563],[6.67048,51.83128],[6.67364,51.82786],[6.67878,51.82467],[6.68514,51.82248],[6.69224,51.82147],[6.69951,51.82171],[6.70639,51.82318],[6.71234,51.82578],[6.71591,51.82834],[6.71817,51.83078],[6.7197,51.83344],[6.72046,51.83622],[6.72043,51.83903],[6.7196,51.84181],[6.718,51.84444],[6.71568,51.84687],[6.70918,51.85079],[6.7009,51.8531],[6.69093,51.85344],[6.68562,51.85263],[6.68333,51.85167],[6.71667,51.89717],[6.71775,51.89839],[6.72197,51.89606],[6.73245,51.8987],[6.73713,51.90468],[6.74554,51.90572],[6.75126,51.90724],[6.75206,51.90855],[6.7544,51.91007],[6.75403,51.91262],[6.75462,51.91309],[6.76165,51.91442],[6.76599,51.91607],[6.77004,51.9162],[6.78895,51.92966],[6.78598,51.93119],[6.79399,51.93529],[6.79727,51.94255],[6.79624,51.94398],[6.79887,51.95874],[6.81246,51.96183],[6.81384,51.96363],[6.82853,51.96411],[6.83243,51.97004],[6.83275,51.97294],[6.83231,51.97434],[6.83023,51.97641],[6.8296,51.97943],[6.83035,51.98619],[6.82661,51.99353],[6.8078,51.99497],[6.81141,51.9981],[6.77215,52.01789],[6.76631,52.01878],[6.76409,52.02231],[6.75298,52.02841],[6.71415,52.04007],[6.68785,52.03986],[6.6882,52.05235],[6.68675,52.05254],[6.68681,52.05552],[6.68739,52.0564],[6.68957,52.05645],[6.69525,52.0642],[6.69587,52.06426],[6.69687,52.06734],[6.69647,52.06829],[6.69549,52.06858],[6.69466,52.0698],[6.71387,52.0729],[6.73547,52.07463],[6.74403,52.08034],[6.74761,52.08192],[6.75109,52.08548],[6.75026,52.08751],[6.7455,52.09007],[6.74458,52.0918],[6.74519,52.09208],[6.7445,52.09309],[6.7455,52.09318],[6.74653,52.09437],[6.74872,52.09484],[6.75028,52.09578],[6.7533,52.09588],[6.755,52.09486],[6.75526,52.09524],[6.75631,52.09693],[6.75547,52.09713],[6.75763,52.09929],[6.75803,52.10396],[6.75957,52.1093],[6.76057,52.11878],[6.82271,52.1184],[6.8432,52.1192],[6.85547,52.12046],[6.86709,52.12807],[6.87346,52.13028],[6.87303,52.13194],[6.8733,52.13297],[6.877,52.14277],[6.87917,52.143],[6.88702,52.14224],[6.90282,52.14246],[6.91855,52.14337],[6.93414,52.14496],[6.95707,52.14863],[6.97194,52.1519],[6.98639,52.15582],[7.00034,52.16036],[7.01373,52.1655],[7.02648,52.17122],[7.03852,52.17748],[7.04981,52.18425],[7.06026,52.1915],[7.06984,52.19919],[7.0785,52.20728],[7.08333,52.21117]]]}},{"type":"Feature","properties":{"name":"LFA 3 Nordhessen","source":"NfL 2025-1-3686 (DFS Deutsche Flugsicherung); linear segments (c) OpenStreetMap contributors, ODbL, data 2026-09-18"},"geometry":{"type":"Polygon","coordinates":[[[7.96667,51.1555],[7.96856,51.15661],[7.97591,51.15537],[7.98447,51.15558],[7.9908,51.1569],[7.99641,51.15916],[8.00205,51.1632],[8.00513,51.16757],[8.00609,51.1711],[8.00585,51.17468],[8.00333,51.175],[8.19167,51.27083],[8.20833,51.25],[8.20697,51.25113],[8.21674,51.25399],[8.22345,51.25715],[8.22896,51.25875],[8.23217,51.26085],[8.24266,51.26508],[8.25642,51.27399],[8.25967,51.27764],[8.26278,51.28255],[8.26275,51.28393],[8.26174,51.28652],[8.26183,51.28909],[8.26079,51.29078],[8.26151,51.29273],[8.26135,51.296],[8.25744,51.30171],[8.25743,51.30286],[8.25895,51.30542],[8.25668,51.30785],[8.25634,51.30934],[8.25791,51.31133],[8.26748,51.31527],[8.26835,51.31662],[8.26198,51.32196],[8.25788,51.32272],[8.2562,51.32403],[8.25559,51.32582],[8.25642,51.32979],[8.25473,51.33195],[8.25495,51.33308],[8.26036,51.33708],[8.26435,51.33767],[8.26812,51.33884],[8.26667,51.34033],[8.26905,51.34056],[8.27203,51.33825],[8.2756,51.33629],[8.28409,51.33368],[8.2935,51.33305],[8.29911,51.33366],[8.30355,51.33472],[8.31121,51.33818],[8.3142,51.34049],[8.31651,51.34308],[8.31806,51.34588],[8.31885,51.34941],[8.31667,51.35],[8.31546,51.35208],[8.3347,51.35385],[8.34664,51.3535],[8.36687,51.35682],[8.36747,51.35395],[8.36991,51.3504],[8.37305,51.34773],[8.37702,51.34553],[8.38165,51.3439],[8.38671,51.34291],[8.39199,51.3426],[8.39813,51.34313],[8.40309,51.34431],[8.40754,51.34611],[8.41128,51.34846],[8.41416,51.35125],[8.41643,51.35543],[8.41684,51.35762],[8.41665,51.36039],[8.41475,51.36464],[8.4105,51.36883],[8.41195,51.36721],[8.41575,51.36871],[8.41937,51.36917],[8.42817,51.3689],[8.43449,51.36598],[8.44107,51.36491],[8.44443,51.36528],[8.44899,51.36734],[8.45123,51.36782],[8.45488,51.36748],[8.45746,51.36612],[8.45967,51.36667],[8.45734,51.36218],[8.45663,51.3587],[8.45729,51.35464],[8.45951,51.35079],[8.46316,51.3474],[8.46802,51.34467],[8.47293,51.34297],[8.47922,51.34185],[8.48577,51.34172],[8.49304,51.34279],[8.4988,51.34474],[8.50363,51.34749],[8.50724,51.3509],[8.50961,51.35533],[8.50991,51.35999],[8.50904,51.36286],[8.50833,51.36333],[8.50772,51.36203],[8.51123,51.36098],[8.51331,51.35937],[8.51681,51.35228],[8.5188,51.35058],[8.52217,51.34982],[8.54294,51.34821],[8.54548,51.34703],[8.54903,51.34324],[8.55258,51.34194],[8.55667,51.34218],[8.57305,51.34644],[8.57571,51.34835],[8.57778,51.35296],[8.57636,51.34896],[8.57422,51.34573],[8.57509,51.34249],[8.57534,51.3387],[8.57677,51.33667],[8.58194,51.33327],[8.5842,51.32951],[8.5846,51.32497],[8.58761,51.31975],[8.58769,51.31832],[8.58551,51.31376],[8.5852,51.31111],[8.5878,51.30581],[8.59142,51.30253],[8.59167,51.30283],[8.58926,51.29814],[8.58865,51.29448],[8.5895,51.29023],[8.59197,51.28623],[8.59592,51.28273],[8.60112,51.27993],[8.60633,51.27822],[8.61296,51.27714],[8.61884,51.27703],[8.62556,51.27789],[8.63091,51.27941],[8.63634,51.28203],[8.64059,51.28539],[8.64311,51.28871],[8.64446,51.29229],[8.64458,51.29597],[8.64348,51.29958],[8.64119,51.30297],[8.63717,51.30644],[8.63333,51.30833],[8.99717,51.72783],[9.00009,51.72802],[9.00342,51.72496],[9.00771,51.7224],[9.01189,51.72073],[9.01744,51.71937],[9.02232,51.7188],[9.02829,51.71884],[9.03777,51.72062],[9.04427,51.72344],[9.04924,51.72728],[9.05138,51.73006],[9.05251,51.73242],[9.05,51.73333],[9.09167,51.75833],[9.0934,51.76255],[9.09402,51.7654],[9.09386,51.76899],[9.09301,51.77182],[9.09152,51.77455],[9.08881,51.77772],[9.08524,51.78056],[9.08183,51.78252],[9.07279,51.78572],[9.06257,51.78702],[9.05677,51.78685],[9.0511,51.78606],[9.04575,51.78466],[9.043,51.78333],[9.09167,51.8375],[9.09089,51.83762],[9.0917,51.83839],[9.09126,51.83887],[9.09313,51.83893],[9.09324,51.84006],[9.09392,51.84012],[9.09454,51.83935],[9.09602,51.84039],[9.09742,51.84004],[9.10042,51.84125],[9.09985,51.8416],[9.10089,51.84222],[9.10032,51.84272],[9.10126,51.84272],[9.10077,51.8434],[9.10187,51.84388],[9.10134,51.84483],[9.10234,51.84547],[9.10279,51.84689],[9.10185,51.84683],[9.10157,51.84724],[9.10201,51.84878],[9.10097,51.84977],[9.10188,51.85008],[9.10086,51.85047],[9.1007,51.85277],[9.10737,51.85496],[9.11196,51.85732],[9.11565,51.86021],[9.11859,51.86411],[9.11983,51.86772],[9.1198,51.8714],[9.11853,51.87501],[9.11606,51.87836],[9.11251,51.88132],[9.10803,51.88376],[9.10373,51.88531],[9.0971,51.88688],[9.1053,51.89596],[9.12392,51.90919],[9.13578,51.91339],[9.1375,51.91512],[9.13925,51.91958],[9.1421,51.92143],[9.15886,51.92299],[9.1743,51.93144],[9.18924,51.93663],[9.19254,51.93666],[9.20061,51.9348],[9.21068,51.93655],[9.22821,51.93697],[9.23118,51.93847],[9.23441,51.94132],[9.23816,51.948],[9.24703,51.94636],[9.25347,51.9464],[9.26056,51.94761],[9.26753,51.95036],[9.27069,51.95243],[9.27322,51.9548],[9.27504,51.95741],[9.27621,51.96074],[9.27631,51.96358],[9.2756,51.96639],[9.27411,51.96907],[9.27188,51.97156],[9.27123,51.9732],[9.28153,51.9797],[9.2851,51.98132],[9.31021,51.98873],[9.32075,51.99309],[9.33005,51.99313],[9.33388,51.99449],[9.33758,51.99821],[9.33856,52.00003],[9.33852,52.00142],[9.33664,52.00615],[9.33812,52.01178],[9.35206,52.02863],[9.35674,52.03176],[9.37172,52.03737],[9.3762,52.03962],[9.38011,52.04266],[9.38526,52.04908],[9.38022,52.04269],[9.38333,52.04167],[9.38022,52.04269],[9.37781,52.03985],[9.37851,52.03784],[9.38905,52.03381],[9.39307,52.03175],[9.39674,52.02622],[9.41237,52.01381],[9.419,52.01024],[9.42333,52.0032],[9.42481,52.00228],[9.428,52.00141],[9.42942,52.00032],[9.43187,51.997],[9.4335,51.99361],[9.43555,51.99134],[9.43952,51.98886],[9.44859,51.98535],[9.45848,51.98368],[9.46224,51.98402],[9.46669,51.98546],[9.47175,51.98591],[9.47973,51.98525],[9.49132,51.98548],[9.49188,51.98406],[9.49122,51.98079],[9.49169,51.97751],[9.49325,51.97436],[9.49586,51.97147],[9.49938,51.96899],[9.50445,51.96675],[9.50939,51.96548],[9.51465,51.96487],[9.52,51.96496],[9.5252,51.96573],[9.53002,51.96716],[9.53426,51.96917],[9.53772,51.97169],[9.54024,51.9746],[9.54187,51.97831],[9.5421,51.97995],[9.54167,51.9805],[9.88333,51.87783],[9.81667,51.83333],[9.76667,51.65833],[9.7648,51.66048],[9.75972,51.65879],[9.75675,51.6585],[9.74393,51.66093],[9.72114,51.66068],[9.71405,51.65918],[9.69573,51.6531],[9.68652,51.64823],[9.68365,51.64773],[9.68076,51.64785],[9.67642,51.64945],[9.67125,51.6543],[9.66637,51.65562],[9.66667,51.657],[9.66571,51.65766],[9.66583,51.66098],[9.66456,51.66477],[9.66231,51.66779],[9.65849,51.67085],[9.65358,51.67325],[9.64788,51.67483],[9.64173,51.67551],[9.6355,51.67525],[9.62797,51.67356],[9.62164,51.6705],[9.61755,51.66688],[9.61506,51.66215],[9.61485,51.65828],[9.61587,51.65502],[9.61841,51.65148],[9.62164,51.64883],[9.62643,51.64635],[9.63204,51.64465],[9.63904,51.64382],[9.64083,51.6438],[9.64176,51.64444],[9.62734,51.63388],[9.62377,51.63205],[9.60661,51.62809],[9.59107,51.6279],[9.5734,51.62595],[9.56975,51.62639],[9.56667,51.62783],[9.56546,51.62659],[9.56352,51.6273],[9.56067,51.627],[9.55761,51.62742],[9.55689,51.62673],[9.5552,51.62626],[9.55363,51.6276],[9.55624,51.62986],[9.55776,51.6317],[9.55801,51.6328],[9.55792,51.6339],[9.55637,51.63673],[9.55442,51.638],[9.54799,51.64003],[9.54418,51.64038],[9.54022,51.63906],[9.53624,51.63383],[9.53333,51.63097],[9.52271,51.62611],[9.5167,51.62596],[9.50789,51.62684],[9.50302,51.62843],[9.49435,51.63214],[9.49182,51.63475],[9.49114,51.6369],[9.49171,51.64021],[9.49428,51.6462],[9.49695,51.64906],[9.49833,51.65175],[9.49761,51.65518],[9.49687,51.65631],[9.49522,51.6574],[9.49004,51.65771],[9.48377,51.65642],[9.47128,51.65482],[9.46537,51.65305],[9.45854,51.65004],[9.4508,51.64376],[9.44861,51.64291],[9.44638,51.64333],[9.4374,51.64828],[9.43502,51.64874],[9.43174,51.64845],[9.42746,51.6472],[9.4168,51.64314],[9.4125,51.64717],[9.405,51.67333],[9.40256,51.67726],[9.39879,51.68075],[9.39531,51.68284],[9.39044,51.6848],[9.38502,51.6861],[9.38026,51.68662],[9.37541,51.68662],[9.36971,51.68593],[9.36437,51.68452],[9.36036,51.68284],[9.3551,51.67933],[9.35193,51.67562],[9.35022,51.67094],[9.35065,51.66615],[9.35237,51.66271],[9.38333,51.61667],[8.88333,51.175],[8.88432,51.17511],[8.88664,51.17182],[8.89056,51.16846],[8.89966,51.16579],[8.90215,51.16465],[8.90534,51.16182],[8.90588,51.16064],[8.90562,51.15955],[8.90424,51.15837],[8.888,51.15226],[8.88611,51.15106],[8.88427,51.14798],[8.88298,51.14443],[8.88202,51.13804],[8.87946,51.13473],[8.87152,51.12932],[8.87029,51.12782],[8.8702,51.12564],[8.8727,51.11916],[8.87273,51.11809],[8.87205,51.11705],[8.86962,51.11599],[8.86211,51.11579],[8.85849,51.11507],[8.85035,51.11131],[8.83398,51.1025],[8.83141,51.09514],[8.83243,51.09048],[8.83226,51.08948],[8.8282,51.08582],[8.83333,51.08333],[8.83126,51.08646],[8.81956,51.09184],[8.80702,51.09641],[8.78925,51.10117],[8.77532,51.10368],[8.76104,51.10525],[8.74175,51.10587],[8.7273,51.1052],[8.71304,51.10359],[8.69913,51.10103],[8.68572,51.09757],[8.67297,51.09324],[8.66101,51.08808],[8.64999,51.08217],[8.64002,51.07555],[8.63121,51.06831],[8.62366,51.06053],[8.61937,51.05508],[8.6157,51.04946],[8.61267,51.04369],[8.61029,51.0378],[8.60858,51.03181],[8.60754,51.02577],[8.60718,51.01969],[8.6075,51.01362],[8.60925,51.00457],[8.61125,50.99862],[8.61392,50.99278],[8.61723,50.98707],[8.62117,50.98152],[8.62822,50.97355],[8.63962,50.96374],[8.65309,50.95504],[8.6644,50.94934],[8.6766,50.94442],[8.68516,50.9416],[8.69854,50.9381],[8.71244,50.9355],[8.71667,50.93333],[8.71949,50.93488],[8.71719,50.93682],[8.7105,50.93861],[8.70554,50.94054],[8.70485,50.92819],[8.7042,50.92676],[8.70528,50.92236],[8.70714,50.92033],[8.7084,50.91808],[8.7099,50.91716],[8.71418,50.91608],[8.71992,50.91262],[8.72432,50.90861],[8.72633,50.90616],[8.73571,50.90109],[8.7445,50.89309],[8.74703,50.89202],[8.74747,50.89099],[8.75268,50.88692],[8.75843,50.8844],[8.76241,50.88173],[8.76629,50.88028],[8.76889,50.87817],[8.77328,50.87633],[8.77416,50.8747],[8.77725,50.87455],[8.78379,50.87262],[8.78497,50.87157],[8.78038,50.8721],[8.76788,50.87123],[8.76159,50.87349],[8.75856,50.87538],[8.75833,50.875],[8.75934,50.8754],[8.76113,50.87403],[8.76332,50.87318],[8.77291,50.87193],[8.76612,50.87279],[8.76217,50.87265],[8.75832,50.87153],[8.74411,50.86939],[8.71392,50.86376],[8.70259,50.85877],[8.6966,50.85846],[8.67928,50.85286],[8.67732,50.85261],[8.66064,50.85339],[8.65139,50.85524],[8.64359,50.85975],[8.6341,50.86393],[8.62415,50.86531],[8.61862,50.86676],[8.61378,50.86679],[8.59977,50.871],[8.59779,50.87117],[8.59494,50.87019],[8.59167,50.86643],[8.58144,50.86112],[8.57911,50.85919],[8.57489,50.85688],[8.57097,50.85597],[8.56358,50.85643],[8.55846,50.8589],[8.55291,50.86652],[8.54834,50.87044],[8.54344,50.8772],[8.54258,50.87986],[8.53992,50.8828],[8.54069,50.89422],[8.53883,50.8945],[8.54003,50.8941],[8.54599,50.89539],[8.55054,50.89705],[8.55456,50.89919],[8.55793,50.90173],[8.56054,50.90461],[8.56231,50.90773],[8.56308,50.91034],[8.56286,50.91563],[8.56187,50.91821],[8.55985,50.92127],[8.55495,50.92557],[8.54742,50.92916],[8.53746,50.9312],[8.52803,50.93108],[8.52197,50.92997],[8.51557,50.9277],[8.51163,50.9255],[8.50675,50.92119],[8.50502,50.9205],[8.50108,50.92338],[8.49744,50.92509],[8.49271,50.92483],[8.48006,50.92532],[8.47195,50.92443],[8.46772,50.92065],[8.46593,50.91983],[8.45253,50.9185],[8.45004,50.91918],[8.4419,50.92438],[8.443,50.925],[8.44306,50.92558],[8.44228,50.92905],[8.44038,50.93233],[8.43742,50.93529],[8.43133,50.93884],[8.42379,50.94103],[8.41462,50.94159],[8.4057,50.94014],[8.40092,50.93836],[8.39684,50.93599],[8.39364,50.93314],[8.3907,50.92914],[8.38523,50.9301],[8.37661,50.93576],[8.37595,50.93753],[8.37705,50.94017],[8.37704,50.94168],[8.37452,50.94434],[8.37466,50.94736],[8.37338,50.94857],[8.36899,50.95008],[8.36075,50.94932],[8.35654,50.95001],[8.35057,50.94988],[8.3467,50.95096],[8.34429,50.9508],[8.34276,50.95005],[8.34135,50.94839],[8.33907,50.94285],[8.33569,50.94045],[8.3332,50.94012],[8.32936,50.94084],[8.32765,50.94162],[8.32467,50.94464],[8.32425,50.94763],[8.3216,50.95193],[8.31708,50.95389],[8.31128,50.95302],[8.30617,50.95148],[8.3055,50.95283],[8.15,50.96667],[8.11667,50.97667],[8.12287,50.97955],[8.12784,50.98405],[8.12956,50.9869],[8.13036,50.98929],[8.13059,50.99234],[8.13017,50.99477],[8.12775,50.9994],[8.12273,51.00387],[8.11575,51.00715],[8.10751,51.0089],[8.10171,51.00914],[8.0969,51.00875],[8.08797,51.00644],[8.08411,51.00459],[8.08025,51.00185],[8.07778,50.99923],[8.07607,50.99637],[8.07518,50.99337],[8.07513,50.99032],[8.07593,50.98731],[8.07754,50.98443],[8.07993,50.98177],[8.08301,50.97942],[8.09167,50.9755],[8.08979,50.97686],[8.08547,50.97516],[8.0803,50.97455],[8.07338,50.97302],[8.06018,50.97209],[8.05644,50.97132],[8.04757,50.96806],[8.04286,50.96335],[8.03241,50.95746],[8.02333,50.95572],[8.01887,50.9562],[8.01593,50.95749],[8.01706,50.95886],[8.01727,50.96224],[8.01658,50.96503],[8.01514,50.9677],[8.01136,50.97153],[8.0053,50.97486],[7.9979,50.97684],[7.98989,50.97729],[7.98206,50.97615],[7.975,50.97367],[7.97618,50.97426],[7.97268,50.97597],[7.96992,50.97894],[7.96449,50.98214],[7.95603,50.99216],[7.95579,50.99278],[7.95733,50.99459],[7.95708,50.996],[7.95381,50.99773],[7.95328,50.99834],[7.95321,50.99985],[7.94985,51.00058],[7.94714,51.00039],[7.9449,51.00126],[7.94107,51.00082],[7.93895,51.00148],[7.93876,51.00222],[7.94052,51.00494],[7.94031,51.00635],[7.94161,51.00876],[7.94154,51.01219],[7.9408,51.01297],[7.9396,51.01319],[7.93806,51.01271],[7.93484,51.0093],[7.93373,51.00871],[7.92223,51.00757],[7.91535,51.00876],[7.90759,51.01103],[7.90578,51.01222],[7.90469,51.01575],[7.90197,51.0179],[7.90165,51.02027],[7.90105,51.02127],[7.89797,51.02468],[7.89317,51.02801],[7.89309,51.02951],[7.89525,51.03264],[7.89495,51.03366],[7.89414,51.03431],[7.88901,51.03602],[7.8796,51.03609],[7.87528,51.03675],[7.87348,51.0402],[7.8701,51.0436],[7.86551,51.04638],[7.85997,51.04837],[7.85292,51.04952],[7.84655,51.04948],[7.83954,51.04823],[7.83333,51.04583],[7.83363,51.04753],[7.83205,51.0502],[7.83268,51.05229],[7.83613,51.05451],[7.83721,51.05578],[7.83741,51.05706],[7.83624,51.06092],[7.83629,51.06218],[7.83703,51.06347],[7.84113,51.06727],[7.84358,51.07685],[7.85075,51.08396],[7.85574,51.09109],[7.85558,51.09314],[7.84915,51.10578],[7.84917,51.10755],[7.85057,51.10945],[7.85335,51.11084],[7.85683,51.11113],[7.85935,51.11053],[7.86515,51.10769],[7.86951,51.10762],[7.87752,51.11053],[7.88299,51.11196],[7.88407,51.11305],[7.88538,51.11648],[7.88819,51.11798],[7.88883,51.11667],[7.89099,51.11729],[7.89752,51.11479],[7.90584,51.11346],[7.91441,51.11382],[7.9232,51.11615],[7.92957,51.11977],[7.93349,51.12389],[7.93513,51.12734],[7.9356,51.13093],[7.93556,51.13153],[7.93333,51.132],[7.93257,51.1306],[7.93528,51.1299],[7.93799,51.1302],[7.94029,51.13181],[7.94263,51.13643],[7.94382,51.13751],[7.94589,51.13819],[7.9515,51.13838],[7.95359,51.1392],[7.95482,51.14086],[7.95592,51.14513],[7.96465,51.15561],[7.96667,51.1555]]]}},{"type":"Feature","properties":{"name":"LFA 5 Hamburg / Bremen","source":"NfL 2025-1-3686 (DFS Deutsche Flugsicherung); linear segments (c) OpenStreetMap contributors, ODbL, data 2026-09-18"},"geometry":{"type":"Polygon","coordinates":[[[9.41667,52.95833],[9.45,53.07217],[9.45398,53.07397],[9.46022,53.07852],[9.46853,53.08583],[9.47334,53.09097],[9.47752,53.09631],[9.48107,53.10181],[9.48396,53.10745],[9.48619,53.11319],[9.48772,53.11902],[9.48858,53.12489],[9.48855,53.13374],[9.48696,53.14253],[9.48383,53.15117],[9.48333,53.15417],[9.48499,53.151],[9.4868,53.15122],[9.49523,53.15345],[9.50133,53.15683],[9.50468,53.16014],[9.5066,53.16385],[9.50696,53.16772],[9.50602,53.17099],[9.50351,53.17457],[9.49964,53.17767],[9.49463,53.18012],[9.48789,53.18194],[9.48151,53.18255],[9.47416,53.1821],[9.46811,53.18073],[9.46281,53.17851],[9.45833,53.1805],[9.45584,53.18306],[9.44578,53.18948],[9.43465,53.19522],[9.41836,53.20172],[9.40071,53.20679],[9.38678,53.20958],[9.37245,53.21149],[9.35786,53.21247],[9.33333,53.2125],[9.33044,53.21348],[9.33766,53.23675],[9.33757,53.23929],[9.33673,53.24116],[9.33346,53.24414],[9.30984,53.25713],[9.28288,53.28006],[9.28333,53.2805],[9.28457,53.27782],[9.29127,53.27869],[9.29823,53.28084],[9.30451,53.28452],[9.30789,53.28809],[9.30972,53.29204],[9.30989,53.29613],[9.30805,53.30068],[9.30476,53.30428],[9.30011,53.30729],[9.29348,53.30978],[9.28693,53.31099],[9.28008,53.31121],[9.27335,53.31043],[9.26632,53.30838],[9.26115,53.30569],[9.257,53.307],[9.25225,53.30624],[9.22577,53.33286],[9.22488,53.33438],[9.22265,53.34484],[9.20991,53.3645],[9.19795,53.39069],[9.19708,53.39324],[9.19656,53.40243],[9.196,53.40437],[9.19453,53.40642],[9.18341,53.41665],[9.178,53.42741],[9.17113,53.43556],[9.17085,53.43746],[9.17294,53.44276],[9.17293,53.44482],[9.1668,53.45718],[9.1647,53.46726],[9.15991,53.47436],[9.15914,53.47524],[9.15833,53.475],[9.80833,53.31117],[9.80826,53.31029],[9.80685,53.30998],[9.80648,53.30944],[9.80275,53.30928],[9.79282,53.29029],[9.79299,53.28904],[9.8086,53.2505],[9.80793,53.24794],[9.80156,53.24019],[9.80724,53.22516],[9.81979,53.21097],[9.83987,53.17752],[9.84266,53.15865],[9.84636,53.15355],[9.84459,53.1345],[9.8604,53.08872],[9.8618,53.08725],[9.86366,53.08645],[9.87076,53.08602],[9.86316,53.08063],[9.86327,53.07298],[9.85803,53.06077],[9.85809,53.04966],[9.8482,53.01962],[9.85,53.0195],[9.84746,53.01732],[9.83336,53.01713],[9.81977,53.01485],[9.80918,53.01134],[9.80145,53.00743],[9.79388,53.00175],[9.79089,52.99858],[9.78781,52.99409],[9.78582,52.98938],[9.78496,52.98455],[9.78883,52.98333],[9.78889,52.98401],[9.78275,52.98409],[9.77565,52.98524],[9.75748,52.98953],[9.72688,52.9913],[9.72098,52.99084],[9.63916,52.97917],[9.63067,52.97878],[9.60833,52.97917],[9.60935,52.97958],[9.60997,52.9818],[9.60963,52.98629],[9.60766,52.99004],[9.60364,52.99382],[9.59881,52.99647],[9.59306,52.99834],[9.58673,52.99931],[9.58019,52.99933],[9.57473,52.99858],[9.57045,52.99745],[9.56657,52.99589],[9.56259,52.99351],[9.55873,52.98967],[9.55692,52.98589],[9.55668,52.98196],[9.55725,52.97973],[9.55869,52.97706],[9.55833,52.97633],[9.5574,52.97735],[9.54556,52.97306],[9.49178,52.9611],[9.45967,52.95709],[9.45216,52.95681],[9.41581,52.95899],[9.41667,52.95833]]]}},{"type":"Feature","properties":{"name":"LFA 6 Schleswig -Holstein","source":"NfL 2025-1-3686 (DFS Deutsche Flugsicherung); linear segments (c) OpenStreetMap contributors, ODbL, data 2026-09-18"},"geometry":{"type":"Polygon","coordinates":[[[9.26667,54.01667],[9.07783,54.07633],[9.07872,54.07522],[9.08745,54.07595],[9.09535,54.07823],[9.0991,54.08009],[9.10224,54.08231],[9.10605,54.08697],[9.10691,54.08922],[9.10721,54.09209],[9.10665,54.09495],[9.10525,54.09771],[9.10077,54.10216],[9.09415,54.10558],[9.08605,54.10762],[9.07728,54.10808],[9.06868,54.10693],[9.06039,54.10389],[9.05485,54.09987],[9.05313,54.09779],[9.05171,54.09504],[9.05113,54.09218],[9.05141,54.0893],[9.05224,54.08705],[9.05403,54.08437],[9.05283,54.08333],[9.0,54.1],[8.91667,54.14167],[8.89167,54.2625],[9.0,54.37217],[9.06117,54.35],[9.0805,54.36667],[9.08448,54.36474],[9.08803,54.36981],[9.09023,54.37037],[9.10557,54.36382],[9.10694,54.36159],[9.10652,54.3583],[9.10687,54.35758],[9.11074,54.35537],[9.11856,54.35262],[9.12786,54.35137],[9.13359,54.34962],[9.13472,54.34868],[9.13594,54.34645],[9.136,54.34534],[9.13515,54.34327],[9.1353,54.34152],[9.1417,54.33721],[9.14764,54.33725],[9.15284,54.33669],[9.15347,54.33541],[9.15316,54.33483],[9.14437,54.3315],[9.14263,54.33003],[9.14495,54.32122],[9.14868,54.31917],[9.16346,54.31713],[9.17137,54.31674],[9.17271,54.31765],[9.17146,54.31926],[9.16234,54.3261],[9.16188,54.32736],[9.16248,54.32842],[9.16895,54.33269],[9.17682,54.33468],[9.17894,54.33474],[9.19204,54.33296],[9.19525,54.33198],[9.19642,54.33084],[9.19686,54.32961],[9.19621,54.32789],[9.19308,54.32431],[9.19139,54.3215],[9.19011,54.31667],[9.19064,54.31565],[9.19283,54.31566],[9.19816,54.32026],[9.20747,54.32496],[9.21182,54.32635],[9.21577,54.32599],[9.22195,54.32268],[9.22405,54.32225],[9.22556,54.32246],[9.22741,54.32596],[9.22687,54.33071],[9.22712,54.33248],[9.22966,54.33609],[9.22993,54.33834],[9.22867,54.33993],[9.2209,54.34312],[9.21955,54.34419],[9.21916,54.34501],[9.21956,54.34581],[9.22076,54.34657],[9.22926,54.34691],[9.232,54.34646],[9.23383,54.34557],[9.23849,54.34194],[9.24379,54.34009],[9.24758,54.34002],[9.25091,54.34062],[9.25872,54.34415],[9.26313,54.34302],[9.26695,54.34079],[9.26787,54.33949],[9.26723,54.3385],[9.2611,54.33467],[9.26106,54.33276],[9.2619,54.3314],[9.26428,54.32941],[9.26722,54.3282],[9.27583,54.32642],[9.27735,54.32556],[9.27792,54.32447],[9.27588,54.32098],[9.27126,54.31737],[9.271,54.31576],[9.27381,54.31211],[9.27479,54.30977],[9.27445,54.30825],[9.2726,54.30786],[9.26263,54.30938],[9.25967,54.30927],[9.25901,54.30888],[9.25902,54.30785],[9.25991,54.30497],[9.26132,54.30369],[9.26342,54.30298],[9.27111,54.30245],[9.2734,54.30157],[9.27282,54.30023],[9.26806,54.29779],[9.26721,54.29699],[9.26737,54.29635],[9.26783,54.29565],[9.27124,54.2942],[9.28308,54.29091],[9.28377,54.29036],[9.28417,54.28903],[9.28155,54.2851],[9.28655,54.27607],[9.28741,54.2753],[9.28903,54.27482],[9.29709,54.27482],[9.29889,54.27427],[9.30324,54.27159],[9.305,54.27153],[9.30922,54.27343],[9.31328,54.2762],[9.31483,54.27672],[9.32125,54.27724],[9.32474,54.2812],[9.32833,54.2827],[9.332,54.2833],[9.33636,54.2832],[9.3385,54.28274],[9.34247,54.2804],[9.34384,54.2803],[9.34925,54.28063],[9.35,54.28333],[9.35833,54.24167],[9.44167,54.25283],[9.49368,54.2122],[9.49631,54.20535],[9.50057,54.19879],[9.50636,54.19264],[9.51358,54.18703],[9.52438,54.18094],[9.53423,54.17693],[9.54774,54.17312],[9.55924,54.1711],[9.57112,54.17006],[9.58012,54.16992],[9.59207,54.1706],[9.60086,54.17176],[9.61216,54.17413],[9.6202,54.1765],[9.63017,54.18042],[9.63697,54.18387],[9.6468,54.1905],[9.65169,54.19492],[9.65574,54.19963],[9.65979,54.20624],[9.66176,54.21138],[9.66255,54.21486],[9.66117,54.21667],[9.71383,54.2555],[9.72557,54.26014],[9.73367,54.26415],[9.74098,54.26864],[9.74717,54.27367],[9.74665,54.27213],[9.78872,54.25288],[9.79244,54.25036],[9.79523,54.24744],[9.8372,54.18319],[9.84167,54.18333],[9.8421,54.18146],[9.8371,54.17949],[9.83291,54.17694],[9.82931,54.1734],[9.82748,54.17004],[9.8269,54.16652],[9.82759,54.16301],[9.82952,54.15967],[9.8326,54.15663],[9.83748,54.15366],[9.84344,54.15148],[9.85014,54.15022],[9.85615,54.14993],[9.86408,54.15069],[9.87133,54.15272],[9.87666,54.1554],[9.875,54.157],[9.87233,54.1558],[9.8868,54.1481],[9.93251,54.11911],[9.9375,54.12083],[9.93653,54.11831],[9.92675,54.11263],[9.91844,54.10619],[9.91327,54.10095],[9.90907,54.09541],[9.90507,54.08768],[9.90332,54.08171],[9.90265,54.07566],[9.90308,54.06961],[9.90534,54.06164],[9.90829,54.05583],[9.91381,54.04843],[9.92106,54.04157],[9.93232,54.03394],[9.94287,54.02875],[9.94569,54.02759],[9.95,54.02783],[9.95476,54.02733],[9.93089,53.9988],[9.9318,53.99814],[9.93301,53.99393],[9.93333,53.9945],[9.93333,53.97783],[9.93068,53.97758],[9.91627,53.98033],[9.90332,53.98099],[9.88832,53.97973],[9.87619,53.97697],[9.86532,53.97279],[9.859,53.96929],[9.85483,53.96635],[9.84819,53.95977],[9.84511,53.955],[9.84357,53.95128],[9.8425,53.94493],[9.84332,53.93857],[9.84601,53.93239],[9.85048,53.92658],[9.85661,53.92132],[9.86587,53.91595],[9.87878,53.91129],[9.88077,53.91078],[9.88333,53.91117],[9.8815,53.91092],[9.88845,53.87418],[9.88854,53.85615],[9.8766,53.79378],[9.87917,53.793],[9.87888,53.79167],[9.81597,53.79222],[9.80261,53.79276],[9.74622,53.79261],[9.74225,53.7921],[9.7157,53.78583],[9.70783,53.78305],[9.68097,53.78096],[9.67466,53.77919],[9.67217,53.77783],[9.6578,53.77977],[9.65047,53.77976],[9.64468,53.77921],[9.63908,53.77817],[9.63252,53.77623],[9.62665,53.77363],[9.625,53.77217],[9.45833,53.73333],[9.45297,53.72871],[9.43675,53.73464],[9.42132,53.74325],[9.41788,53.75166],[9.41835,53.75493],[9.41806,53.76181],[9.41345,53.77421],[9.40588,53.78435],[9.41137,53.78507],[9.41117,53.78617],[9.41493,53.78357],[9.41965,53.78158],[9.4259,53.78005],[9.43162,53.77948],[9.44119,53.78012],[9.44982,53.78265],[9.4541,53.78497],[9.45698,53.78726],[9.45948,53.79036],[9.46084,53.79369],[9.46105,53.79654],[9.46019,53.79993],[9.45816,53.80314],[9.45505,53.80603],[9.44945,53.80917],[9.44168,53.81146],[9.43309,53.81222],[9.42452,53.81137],[9.41761,53.80933],[9.41255,53.80669],[9.40967,53.80439],[9.407,53.80133],[9.40874,53.79979],[9.40384,53.79831],[9.40251,53.79682],[9.40191,53.79491],[9.39816,53.79418],[9.38962,53.80471],[9.37319,53.80646],[9.3717,53.8108],[9.3677,53.81718],[9.35829,53.82624],[9.32053,53.84966],[9.29433,53.86414],[9.26899,53.87012],[9.27535,53.87831],[9.28057,53.88078],[9.28883,53.87783],[9.26667,54.01667]]]}},{"type":"Feature","properties":{"name":"LFA 7 Bayern","source":"NfL 2025-1-3686 (DFS Deutsche Flugsicherung); linear segments (c) OpenStreetMap contributors, ODbL, data 2026-09-18"},"geometry":{"type":"Polygon","coordinates":[[[10.425,49.29167],[10.15,49.18883],[10.14825,49.18409],[10.15806,49.17381],[10.16393,49.16557],[10.16844,49.15697],[10.17066,49.15109],[10.17225,49.14511],[10.17319,49.13908],[10.17348,49.13302],[10.1727,49.12395],[10.17046,49.11497],[10.16679,49.10621],[10.16173,49.09774],[10.15293,49.08708],[10.14487,49.07968],[10.13236,49.07074],[10.11806,49.06304],[10.11032,49.05971],[10.09809,49.05539],[10.08959,49.05299],[10.08333,49.0555],[10.08408,49.05528],[10.08445,49.05409],[10.08487,49.0469],[10.08622,49.04288],[10.08906,49.03936],[10.09441,49.03628],[10.09829,49.03274],[10.09878,49.03088],[10.09733,49.02483],[10.09783,49.02236],[10.09885,49.02087],[10.10437,49.0159],[10.10572,49.01018],[10.11108,49.00566],[10.11764,49.00288],[10.11958,49.00111],[10.12064,48.99939],[10.125,49.0],[10.12794,48.9992],[10.13912,48.99918],[10.1529,48.99771],[10.16608,48.99467],[10.17825,48.99017],[10.18903,48.98434],[10.19808,48.97735],[10.20514,48.96943],[10.20997,48.96083],[10.21173,48.95544],[10.21262,48.94997],[10.21263,48.94446],[10.21175,48.93898],[10.21,48.93359],[10.20739,48.92836],[10.20396,48.92333],[10.19974,48.91857],[10.19477,48.91413],[10.18913,48.91006],[10.18064,48.90528],[10.17365,48.90224],[10.16364,48.89897],[10.15304,48.89665],[10.15,48.89717],[10.14856,48.89809],[10.1575,48.89675],[10.17305,48.89038],[10.17638,48.88796],[10.17893,48.88412],[10.1808,48.88269],[10.19433,48.87684],[10.20382,48.87437],[10.21232,48.8711],[10.2155,48.87082],[10.22229,48.87164],[10.22539,48.87155],[10.24651,48.86599],[10.2489,48.86572],[10.25156,48.86631],[10.25307,48.86735],[10.25446,48.87114],[10.25726,48.87309],[10.26033,48.87346],[10.26676,48.8723],[10.2737,48.87315],[10.27617,48.87274],[10.28001,48.87049],[10.29013,48.86859],[10.29407,48.8674],[10.29773,48.86704],[10.30053,48.86545],[10.30123,48.86384],[10.30068,48.86135],[10.30099,48.85996],[10.30625,48.85506],[10.30849,48.85415],[10.33333,48.76117],[10.425,48.625],[10.61667,48.6125],[10.62076,48.61328],[10.62522,48.615],[10.63859,48.62183],[10.6433,48.62483],[10.64904,48.62866],[10.65561,48.63491],[10.66112,48.63891],[10.66668,48.64192],[10.67215,48.6439],[10.69778,48.65073],[10.7036,48.65348],[10.70499,48.65461],[10.70665,48.65746],[10.70694,48.66059],[10.70654,48.6623],[10.70408,48.66557],[10.70329,48.6674],[10.70353,48.67046],[10.70465,48.67239],[10.70916,48.67612],[10.71399,48.67932],[10.73001,48.68506],[10.72432,48.68994],[10.71925,48.69563],[10.71543,48.70173],[10.71293,48.70812],[10.71196,48.71303],[10.71189,48.71963],[10.71322,48.72617],[10.71591,48.73253],[10.71992,48.73858],[10.72375,48.74284],[10.72986,48.74806],[10.73514,48.75158],[10.74094,48.75472],[10.7494,48.75825],[10.75852,48.76097],[10.76568,48.76244],[10.78052,48.76386],[10.793,48.76346],[10.80756,48.76111],[10.82106,48.7568],[10.8329,48.75074],[10.83804,48.74713],[10.84257,48.74318],[10.84645,48.73894],[10.84964,48.73446],[10.85417,48.725],[10.85851,48.72745],[10.86232,48.72815],[10.87626,48.72641],[10.88114,48.72657],[10.88437,48.72718],[10.88743,48.72881],[10.89489,48.73731],[10.898,48.73882],[10.90213,48.73972],[10.90737,48.73941],[10.91554,48.73633],[10.92038,48.73539],[10.94351,48.73499],[10.95984,48.73055],[10.96356,48.73009],[10.97132,48.73025],[10.97791,48.73143],[10.99108,48.7362],[11.00355,48.73835],[11.02051,48.73508],[11.04357,48.73431],[11.05078,48.73513],[11.06505,48.73906],[11.06427,48.73995],[11.06175,48.74017],[11.05809,48.73897],[11.05708,48.73795],[11.05117,48.73719],[11.04761,48.73893],[11.0437,48.73914],[11.04226,48.73846],[11.04249,48.73753],[11.04359,48.73661],[11.04266,48.73566],[11.04058,48.73521],[11.03296,48.73542],[11.03333,48.73617],[11.03333,48.7625],[11.05833,48.7625],[11.10833,48.88333],[11.11095,48.89188],[11.11581,48.89999],[11.11973,48.90454],[11.12436,48.9088],[11.13155,48.91394],[11.14195,48.91934],[11.15121,48.92274],[11.1611,48.92526],[11.17144,48.92684],[11.18201,48.92746],[11.1926,48.92709],[11.20301,48.92575],[11.21546,48.92274],[11.22471,48.91934],[11.23316,48.91511],[11.24061,48.91015],[11.24694,48.90454],[11.252,48.89841],[11.25642,48.8902],[11.25833,48.88333],[11.37783,48.99717],[11.37717,48.99779],[11.374,48.99796],[11.36823,49.00005],[11.36378,49.00022],[11.36152,49.00086],[11.35865,49.00222],[11.35629,49.00466],[11.35454,49.00897],[11.35527,49.01231],[11.35753,49.01458],[11.36588,49.01994],[11.36715,49.0217],[11.3677,49.02375],[11.36674,49.02668],[11.36183,49.0319],[11.35745,49.03885],[11.35404,49.04086],[11.34286,49.04369],[11.33865,49.04564],[11.33036,49.05199],[11.32482,49.05936],[11.32206,49.06183],[11.29748,49.07438],[11.29367,49.07709],[11.29054,49.08064],[11.28895,49.08384],[11.28363,49.1042],[11.27938,49.11197],[11.27654,49.12177],[11.27068,49.13293],[11.2612,49.17424],[11.25862,49.17887],[11.24132,49.19939],[11.24167,49.2],[11.22633,49.2],[11.22248,49.19141],[11.21753,49.18308],[11.21126,49.17514],[11.20375,49.16767],[11.1981,49.16299],[11.18871,49.15649],[11.17833,49.15067],[11.16708,49.14559],[11.15507,49.14131],[11.1467,49.13893],[11.13374,49.13609],[11.12038,49.13415],[11.11134,49.13337],[11.09767,49.13298],[11.08855,49.13324],[11.07499,49.13441],[11.05734,49.13741],[11.04462,49.1407],[11.0325,49.14484],[11.02111,49.14979],[11.00728,49.15755],[10.99808,49.16416],[10.98998,49.17137],[10.98333,49.17917],[10.98787,49.17748],[10.98711,49.17254],[10.98254,49.17217],[10.9812,49.17276],[10.98006,49.17403],[10.97804,49.17476],[10.97673,49.17434],[10.97524,49.17215],[10.96869,49.17296],[10.96738,49.1721],[10.96617,49.17276],[10.96589,49.17384],[10.9633,49.17491],[10.96171,49.17391],[10.9574,49.17319],[10.95619,49.17357],[10.95317,49.17546],[10.95374,49.17655],[10.95252,49.17847],[10.95146,49.17831],[10.95039,49.17723],[10.94692,49.17567],[10.94567,49.17623],[10.94449,49.17597],[10.9437,49.17649],[10.94124,49.17581],[10.9393,49.17589],[10.93789,49.17643],[10.93582,49.17874],[10.93498,49.17887],[10.93434,49.17848],[10.93105,49.17881],[10.92786,49.17716],[10.92298,49.17691],[10.92192,49.1774],[10.92087,49.17967],[10.91858,49.1808],[10.91704,49.18021],[10.91275,49.18077],[10.9085,49.18481],[10.90717,49.18532],[10.90203,49.18457],[10.89728,49.18505],[10.8901,49.18798],[10.88757,49.18865],[10.88543,49.18847],[10.88369,49.19371],[10.88855,49.19607],[10.88796,49.19744],[10.88803,49.19901],[10.88936,49.19993],[10.89503,49.20007],[10.89609,49.20065],[10.89855,49.20091],[10.89984,49.20326],[10.89886,49.20337],[10.89847,49.2039],[10.89865,49.2048],[10.89817,49.20553],[10.89896,49.20572],[10.89991,49.20691],[10.89861,49.2073],[10.89891,49.20781],[10.89811,49.20956],[10.89671,49.20946],[10.89562,49.21019],[10.89387,49.20974],[10.89435,49.21014],[10.89255,49.21043],[10.8915,49.21222],[10.88828,49.2137],[10.88703,49.2165],[10.88753,49.22028],[10.88552,49.22026],[10.88549,49.22105],[10.885,49.22113],[10.88492,49.22055],[10.88301,49.22044],[10.88234,49.2208],[10.88212,49.22216],[10.8802,49.22227],[10.87944,49.22162],[10.87559,49.22137],[10.87411,49.22245],[10.87514,49.22336],[10.87421,49.22373],[10.87276,49.22364],[10.87255,49.22324],[10.87157,49.22403],[10.8708,49.22394],[10.87093,49.22349],[10.86847,49.22339],[10.86777,49.22453],[10.86998,49.22514],[10.87055,49.22678],[10.868,49.22776],[10.86731,49.22937],[10.86318,49.22975],[10.86297,49.2306],[10.86231,49.23048],[10.86222,49.22983],[10.85976,49.23014],[10.85949,49.2305],[10.86021,49.23093],[10.85915,49.23144],[10.85521,49.22988],[10.85359,49.2303],[10.85272,49.22991],[10.84933,49.23021],[10.84861,49.23058],[10.84928,49.23156],[10.8502,49.23191],[10.8492,49.2332],[10.84812,49.23291],[10.84697,49.23368],[10.84578,49.23376],[10.84472,49.23373],[10.8446,49.23323],[10.84418,49.23431],[10.8423,49.23423],[10.8413,49.23363],[10.84083,49.23469],[10.83768,49.23457],[10.83697,49.2368],[10.83325,49.23774],[10.83098,49.2389],[10.83039,49.24034],[10.83113,49.24088],[10.83115,49.24171],[10.82966,49.24122],[10.8294,49.24231],[10.82858,49.24177],[10.82718,49.24178],[10.824,49.24659],[10.82047,49.24782],[10.81442,49.24858],[10.8128,49.25039],[10.80813,49.25167],[10.80787,49.25262],[10.80683,49.25276],[10.80606,49.25175],[10.8058,49.25229],[10.80487,49.25164],[10.80368,49.25167],[10.80214,49.25229],[10.80277,49.25376],[10.7994,49.25523],[10.79711,49.25549],[10.79669,49.25616],[10.79601,49.2557],[10.79614,49.25501],[10.79521,49.25587],[10.79035,49.25558],[10.79034,49.25664],[10.78919,49.2572],[10.78919,49.25668],[10.7883,49.25599],[10.78739,49.25636],[10.7865,49.25588],[10.78563,49.25686],[10.78678,49.2579],[10.78783,49.25779],[10.78774,49.25883],[10.79029,49.26086],[10.78991,49.26158],[10.78861,49.26155],[10.78791,49.26293],[10.78705,49.26322],[10.78716,49.26367],[10.78342,49.26318],[10.78136,49.26409],[10.77954,49.26347],[10.77792,49.26386],[10.77686,49.26304],[10.7761,49.26333],[10.77599,49.26276],[10.77444,49.26243],[10.77426,49.26181],[10.77366,49.26225],[10.7729,49.26168],[10.76951,49.26189],[10.76838,49.26277],[10.76837,49.26326],[10.76697,49.26341],[10.76511,49.26462],[10.76254,49.2655],[10.7592,49.26598],[10.75808,49.26538],[10.75764,49.26636],[10.75612,49.26578],[10.75457,49.26754],[10.75135,49.26854],[10.75,49.2695],[10.74643,49.26733],[10.73911,49.25974],[10.73357,49.25498],[10.721,49.24628],[10.71404,49.24238],[10.70285,49.23717],[10.68673,49.23148],[10.66954,49.22733],[10.65615,49.22529],[10.63792,49.22402],[10.63333,49.225],[10.55,49.20833],[10.425,49.29167]]]}},{"type":"Feature","properties":{"name":"LFA 8A Neubrandenburg","source":"NfL 2025-1-3686 (DFS Deutsche Flugsicherung); linear segments (c) OpenStreetMap contributors, ODbL, data 2026-09-18"},"geometry":{"type":"Polygon","coordinates":[[[12.5,54.23333],[13.15,54.23333],[13.9,53.66667],[12.81667,53.65],[12.5,54.23333]]]}},{"type":"Feature","properties":{"name":"LFA 8B Neubrandenburg","source":"NfL 2025-1-3686 (DFS Deutsche Flugsicherung); linear segments (c) OpenStreetMap contributors, ODbL, data 2026-09-18"},"geometry":{"type":"Polygon","coordinates":[[[12.81667,53.65],[13.9,53.66667],[14.0,53.6],[14.0,53.0],[12.9,53.28333],[12.9,53.5],[12.81667,53.65]]]}},{"type":"Feature","properties":{"name":"LFA 8C Neubrandenburg","source":"NfL 2025-1-3686 (DFS Deutsche Flugsicherung); linear segments (c) OpenStreetMap contributors, ODbL, data 2026-09-18"},"geometry":{"type":"Polygon","coordinates":[[[12.9,53.28333],[14.0,53.0],[13.3,52.83333],[12.9,52.83333],[12.9,53.28333]]]}},{"type":"Feature","properties":{"name":"LFA 8D Neubrandenburg","source":"NfL 2025-1-3686 (DFS Deutsche Flugsicherung); linear segments (c) OpenStreetMap contributors, ODbL, data 2026-09-18"},"geometry":{"type":"Polygon","coordinates":[[[12.1,53.28333],[12.9,53.28333],[12.9,52.83333],[12.1,52.83333],[12.1,53.28333]]]}}]}
